BEIDOU-3 M2             
1 43002U 17069B   26063.36523573 -.00000024  00000+0  00000+0 0  9998
2 43002  56.5998  66.5715 0009709 329.0395  30.9280  1.86230543 56644
BEIDOU-3 M7             
1 43107U 18003A   26064.18114576 -.00000067  00000+0  00000+0 0  9990
2 43107  54.4201 305.9428 0004668  71.1796 288.9274  1.86232262 55416
BEIDOU-3 M8             
1 43108U 18003B   26065.20061454 -.00000069  00000+0  00000+0 0  9993
2 43108  54.4118 305.8896 0002953 294.8433  65.1800  1.86230867 55441
BEIDOU-3 M4             
1 43207U 18018A   26062.42109766 -.00000016  00000+0  00000+0 0  9991
2 43207  56.5592  66.6343 0006867 350.5022   9.5144  1.86230898 54773
BEIDOU-3 M3             
1 43208U 18018B   26064.63534936 -.00000033  00000+0  00000+0 0  9997
2 43208  56.5606  66.5651 0009923 319.6810  40.2646  1.86231141 54814
BEIDOU-3 M9             
1 43245U 18029A   26063.77860799 -.00000062  00000+0  00000+0 0  9995
2 43245  54.2878 303.6009 0000937  21.7845 338.2765  1.86228195 53959
BEIDOU-3 M10            
1 43246U 18029B   26063.17653141 -.00000059  00000+0  00000+0 0  9997
2 43246  54.2860 303.6493 0005102  23.7928 336.2892  1.86228884 53922
BEIDOU-2 IGSO-7         
1 43539U 18057A   26056.73984515 -.00000161  00000+0  00000+0 0  9993
2 43539  55.1859 164.0342 0099962 236.5988 133.5173  1.00284731 28015
BEIDOU-3 M5             
1 43581U 18062A   26065.01153201  .00000011  00000+0  00000+0 0  9990
2 43581  54.0879 185.8116 0002277 307.0485  52.9036  1.86228711 51716
BEIDOU-3 M6             
1 43582U 18062B   26062.72660318 -.00000014  00000+0  00000+0 0  9992
2 43582  54.0877 185.8781 0006255  44.1915 315.8167  1.86227526 51674
BEIDOU-3 M12            
1 43602U 18067A   26064.81287722  .00000009  00000+0  00000+0 0  9999
2 43602  54.1822 184.5453 0008548  39.5961 320.4401  1.86227815 51197
BEIDOU-3 M11            
1 43603U 18067B   26064.94763062  .00000010  00000+0  00000+0 0  9992
2 43603  54.1797 184.5047 0004933  32.9662 327.0394  1.86227200 51223
BEIDOU-3 M13            
1 43622U 18072A   26063.82956810 -.00000029  00000+0  00000+0 0  9991
2 43622  56.5333  66.1018 0008916 307.8246  52.1164  1.86230808 50718
BEIDOU-3 M14            
1 43623U 18072B   26063.69502611 -.00000028  00000+0  00000+0 0  9992
2 43623  56.5350  66.1003 0006376 328.8150  31.1695  1.86230841 50709
BEIDOU-3 M16            
1 43647U 18078A   26064.38883562 -.00000064  00000+0  00000+0 0  9998
2 43647  54.1837 303.6261 0008456  31.3305 328.7753  1.86232381 50221
BEIDOU-3 M15            
1 43648U 18078B   26062.37035185 -.00000055  00000+0  00000+0 0  9996
2 43648  54.1808 303.6975 0005342  38.8897 321.2084  1.86232017 50200
BEIDOU-3 G1             
1 43683U 18085A   26065.82327684 -.00000281  00000+0  00000+0 0  9995
2 43683   2.8167 100.3177 0001536  15.9186 124.6875  1.00267936 27033
